$$SOE
2460721.500000000, A.D. 2025-Feb-15 00:00:00.0000, -2.787013504882365E+08, -5.159223437092382E+08, -1.313225420687352E+08,
2460728.500000000, A.D. 2025-Feb-22 00:00:00.0000, -2.712913291887833E+08, -5.208668852919942E+08, -1.322650048556798E+08,
2460735.500000000, A.D. 2025-Mar-01 00:00:00.0000, -2.638209350915120E+08, -5.256955912154042E+08, -1.331780338390369E+08,
2460742.500000000, A.D. 2025-Mar-08 00:00:00.0000, -2.562921414827009E+08, -5.304080124558078E+08, -1.340615846884113E+08,
2460749.500000000, A.D. 2025-Mar-15 00:00:00.0000, -2.487069126427354E+08, -5.350037291307843E+08, -1.349156201549753E+08,
2460756.500000000, A.D. 2025-Mar-22 00:00:00.0000, -2.410672056806578E+08, -5.394823495400467E+08, -1.357401096873749E+08,
2460763.500000000, A.D. 2025-Mar-29 00:00:00.0000, -2.333749710187404E+08, -5.438435114634606E+08, -1.365350293576384E+08,
2460770.500000000, A.D. 2025-Apr-05 00:00:00.0000, -2.256321512016322E+08, -5.480868825787207E+08, -1.373003618710557E+08,
2460777.500000000, A.D. 2025-Apr-12 00:00:00.0000, -2.178406799558871E+08, -5.522121598949865E+08, -1.380360964753292E+08,
2460784.500000000, A.D. 2025-Apr-19 00:00:00.0000, -2.100024816867713E+08, -5.562190690837303E+08, -1.387422288241572E+08,
2460791.500000000, A.D. 2025-Apr-26 00:00:00.0000, -2.021194711402788E+08, -5.601073639095540E+08, -1.394187608369824E+08,
2460798.500000000, A.D. 2025-May-03 00:00:00.0000, -1.941935531161517E+08, -5.638768257414275E+08, -1.400657005638996E+08,
2460805.500000000, A.D. 2025-May-10 00:00:00.0000, -1.862266222026757E+08, -5.675272631353418E+08, -1.406830620577146E+08,
2460812.500000000, A.D. 2025-May-17 00:00:00.0000, -1.782205624957871E+08, -5.710585115291854E+08, -1.412708652599353E+08,
2460819.500000000, A.D. 2025-May-24 00:00:00.0000, -1.701772471278190E+08, -5.744704331042830E+08, -1.418291359211779E+08,
2460826.500000000, A.D. 2025-May-31 00:00:00.0000, -1.620985371874292E+08, -5.777629165027990E+08, -1.423579055690323E+08,
2460833.500000000, A.D. 2025-Jun-07 00:00:00.0000, -1.539862804311493E+08, -5.809358751964382E+08, -1.428572113882961E+08,
2460840.500000000, A.D. 2025-Jun-14 00:00:00.0000, -1.458423121506204E+08, -5.839892451732873E+08, -1.433270958512383E+08,
2460847.500000000, A.D. 2025-Jun-21 00:00:00.0000, -1.376684569780871E+08, -5.869229852141889E+08, -1.437676064768818E+08,
2460854.500000000, A.D. 2025-Jun-28 00:00:00.0000, -1.294665285014581E+08, -5.897370779944276E+08, -1.441787958621963E+08,
2460861.500000000, A.D. 2025-Jul-05 00:00:00.0000, -1.212383282054587E+08, -5.924315298546312E+08, -1.445607216699777E+08,
2460868.500000000, A.D. 2025-Jul-12 00:00:00.0000, -1.129856449296465E+08, -5.950063700462174E+08, -1.449134465299476E+08,
2460875.500000000, A.D. 2025-Jul-19 00:00:00.0000, -1.047102546533584E+08, -5.974616500262851E+08, -1.452370379173447E+08,
2460882.500000000, A.D. 2025-Jul-26 00:00:00.0000, -9.641392039720981E+07, -5.997974428583452E+08, -1.455315680327574E+08,
2460889.500000000, A.D. 2025-Aug-02 00:00:00.0000, -8.809839217525955E+07, -6.020138426970758E+08, -1.457971136872983E+08,
2460896.500000000, A.D. 2025-Aug-09 00:00:00.0000, -7.976540697391243E+07, -6.041109643716031E+08, -1.460337561963398E+08,
2460903.500000000, A.D. 2025-Aug-16 00:00:00.0000, -7.141668868016881E+07, -6.060889431304348E+08, -1.462415812939179E+08,
2460910.500000000, A.D. 2025-Aug-23 00:00:00.0000, -6.305394766623935E+07, -6.079479345314890E+08, -1.464206790931380E+08,
2460917.500000000, A.D. 2025-Aug-30 00:00:00.0000, -5.467887970132623E+07, -6.096881137630941E+08, -1.465711440641980E+08,
2460924.500000000, A.D. 2025-Sep-06 00:00:00.0000, -4.629316560849137E+07, -6.113096733954375E+08, -1.466930748178959E+08,
2460931.500000000, A.D. 2025-Sep-13 00:00:00.0000, -3.789847333696670E+07, -6.128128220448031E+08, -1.467865737438705E+08,
2460938.500000000, A.D. 2025-Sep-20 00:00:00.0000, -2.949645917600987E+07, -6.141977855947183E+08, -1.468517469378806E+08,
2460945.500000000, A.D. 2025-Sep-27 00:00:00.0000, -2.108876705125736E+07, -6.154648078625958E+08, -1.468887042608253E+08,
2460952.500000000, A.D. 2025-Oct-04 00:00:00.0000, -1.267702792002359E+07, -6.166141501727159E+08, -1.468975593003565E+08,
2460959.500000000, A.D. 2025-Oct-11 00:00:00.0000, -4.262859638966410E+06, -6.176460907783356E+08, -1.468784292777402E+08,
2460966.500000000, A.D. 2025-Oct-18 00:00:00.0000, 4.152132979836563E+06, -6.185609244069772E+08, -1.468314349483138E+08,
2460973.500000000, A.D. 2025-Oct-25 00:00:00.0000, 1.256635806425976E+07, -6.193589619174330E+08, -1.467567005074164E+08,
2460980.500000000, A.D. 2025-Nov-01 00:00:00.0000, 2.097823656875727E+07, -6.200405300524852E+08, -1.466543535042053E+08,
2460987.500000000, A.D. 2025-Nov-08 00:00:00.0000, 2.938620218719390E+07, -6.206059713182913E+08, -1.465245247692566E+08,
2460994.500000000, A.D. 2025-Nov-15 00:00:00.0000, 3.778870144009873E+07, -6.210556440486367E+08, -1.463673483745513E+08,
2461001.500000000, A.D. 2025-Nov-22 00:00:00.0000, 4.618419433928425E+07, -6.213899224337242E+08, -1.461829616450929E+08,
2461008.500000000, A.D. 2025-Nov-29 00:00:00.0000, 5.457115547671925E+07, -6.216091953782833E+08, -1.459715051156272E+08,
2461015.500000000, A.D. 2025-Dec-06 00:00:00.0000, 6.294807326020233E+07, -6.217138643245440E+08, -1.457331222348336E+08,
2461022.500000000, A.D. 2025-Dec-13 00:00:00.0000, 7.131344772964633E+07, -6.217043434096541E+08, -1.454679591322243E+08,
2461029.500000000, A.D. 2025-Dec-20 00:00:00.0000, 7.966579044750695E+07, -6.215810609338970E+08, -1.451761646846180E+08,
2461036.500000000, A.D. 2025-Dec-27 00:00:00.0000, 8.800362538971999E+07, -6.213444595481154E+08, -1.448578905720234E+08,
2461043.500000000, A.D. 2026-Jan-03 00:00:00.0000, 9.632548937794285E+07, -6.209949957752216E+08, -1.445132912393157E+08,
2461050.500000000, A.D. 2026-Jan-10 00:00:00.0000, 1.046299321629820E+08, -6.205331395436225E+08, -1.441425238290446E+08,
2461057.500000000, A.D. 2026-Jan-17 00:00:00.0000, 1.129155163922650E+08, -6.199593738228887E+08, -1.437457481139620E+08,
2461064.500000000, A.D. 2026-Jan-24 00:00:00.0000, 1.211808175397438E+08, -6.192741943378096E+08, -1.433231264343967E+08,
2461071.500000000, A.D. 2026-Jan-31 00:00:00.0000, 1.294244238221929E+08, -6.184781093672129E+08, -1.428748236431558E+08,
2461078.500000000, A.D. 2026-Feb-07 00:00:00.0000, 1.376449361638958E+08, -6.175716396840928E+08, -1.424010070682878E+08,
2461085.500000000, A.D. 2026-Feb-14 00:00:00.0000, 1.458409684631165E+08, -6.165553186517667E+08, -1.419018465182171E+08,
2461092.500000000, A.D. 2026-Feb-21 00:00:00.0000, 1.540111485480648E+08, -6.154296918986251E+08, -1.413775143176706E+08,
2461099.500000000, A.D. 2026-Feb-28 00:00:00.0000, 1.621541187374284E+08, -6.141953154176221E+08, -1.408281851805736E+08,
2461106.500000000, A.D. 2026-Mar-07 00:00:00.0000, 1.702685339467391E+08, -6.128527540398947E+08, -1.402540358902494E+08,
2461113.500000000, A.D. 2026-Mar-14 00:00:00.0000, 1.783530601163904E+08, -6.114025826145552E+08, -1.396552452318864E+08,
2461120.500000000, A.D. 2026-Mar-21 00:00:00.0000, 1.864063747445572E+08, -6.098453869964501E+08, -1.390319941038357E+08,
2461127.500000000, A.D. 2026-Mar-28 00:00:00.0000, 1.944271675158495E+08, -6.081817638132907E+08, -1.383844655392767E+08,
2461134.500000000, A.D. 2026-Apr-04 00:00:00.0000, 2.024141404220731E+08, -6.064123199777656E+08, -1.377128446616085E+08,
2461141.500000000, A.D. 2026-Apr-11 00:00:00.0000, 2.103660076491233E+08, -6.045376723044618E+08, -1.370173186278671E+08,
2461148.500000000, A.D. 2026-Apr-18 00:00:00.0000, 2.182814953895004E+08, -6.025584472381448E+08, -1.362980765750678E+08,
2461155.500000000, A.D. 2026-Apr-25 00:00:00.0000, 2.261593416266138E+08, -6.004752806785012E+08, -1.355553095722082E+08,
2461162.500000000, A.D. 2026-May-02 00:00:00.0000, 2.339982959220482E+08, -5.982888179307435E+08, -1.347892105829163E+08,
2461169.500000000, A.D. 2026-May-09 00:00:00.0000, 2.417971193310103E+08, -5.959997138481117E+08, -1.339999744553936E+08,
2461176.500000000, A.D. 2026-May-16 00:00:00.0000, 2.495545848245687E+08, -5.936086330278957E+08, -1.331877979629120E+08,
2461183.500000000, A.D. 2026-May-23 00:00:00.0000, 2.572694782710288E+08, -5.911162490387430E+08, -1.323528798160553E+08,
2461190.500000000, A.D. 2026-May-30 00:00:00.0000, 2.649405978981718E+08, -5.885232423597970E+08, -1.314954204299570E+08,
2461197.500000000, A.D. 2026-Jun-06 00:00:00.0000, 2.725667519190239E+08, -5.858303003049002E+08, -1.306156216849134E+08,
2461204.500000000, A.D. 2026-Jun-13 00:00:00.0000, 2.801467579873247E+08, -5.830381187324879E+08, -1.297136870003965E+08,
2461211.500000000, A.D. 2026-Jun-20 00:00:00.0000, 2.876794439820074E+08, -5.801474026150311E+08, -1.287898214376245E+08,
2461218.500000000, A.D. 2026-Jun-27 00:00:00.0000, 2.951636484224932E+08, -5.771588658080102E+08, -1.278442317029772E+08,
2461225.500000000, A.D. 2026-Jul-04 00:00:00.0000, 3.025982205147204E+08, -5.740732307932795E+08, -1.268771261158339E+08,
2461232.500000000, A.D. 2026-Jul-11 00:00:00.0000, 3.099820200818575E+08, -5.708912285286150E+08, -1.258887145751418E+08,
2461239.500000000, A.D. 2026-Jul-18 00:00:00.0000, 3.173139174724211E+08, -5.676135983775419E+08, -1.248792085313271E+08,
2461246.500000000, A.D. 2026-Jul-25 00:00:00.0000, 3.245927934702469E+08, -5.642410881164967E+08, -1.238488209657407E+08,
2461253.500000000, A.D. 2026-Aug-01 00:00:00.0000, 3.318175392544557E+08, -5.607744540671602E+08, -1.227977663861155E+08,
2461260.500000000, A.D. 2026-Aug-08 00:00:00.0000, 3.389870566244214E+08, -5.572144613895899E+08, -1.217262608607931E+08,
2461267.500000000, A.D. 2026-Aug-15 00:00:00.0000, 3.461002589049498E+08, -5.535618840856540E+08, -1.206345220930968E+08,
2461274.500000000, A.D. 2026-Aug-22 00:00:00.0000, 3.531560717706295E+08, -5.498175034915433E+08, -1.195227693663330E+08,
2461281.500000000, A.D. 2026-Aug-29 00:00:00.0000, 3.601534316999000E+08, -5.459821066319609E+08, -1.183912232616109E+08,
$$EOE